start=new Date('2022-11-13T00:00:00.000Z').valueOf();
sats=[{"PERIOD":"95.592","SEMIMAJOR_AXIS":"6925.335","NORAD_CAT_ID":"47919","PERIAPSIS":"545.848","TLE_LINE1":"1 47919U 21021BM  22316.72544599  .00003643  00000-0  26331-3 0  9999","MEAN_ELEMENT_THEORY":"SGP4","REF_FRAME":"TEME","TIME_SYSTEM":"UTC","APOAPSIS":"548.553","FILE":"3652635","OBJECT_ID":"2021-021BM","OBJECT_NAME":"STARLINK-2405","MEAN_MOTION_DOT":"0.00003643","MEAN_MOTION_DDOT":"0.0000000000000","COUNTRY_CODE":"US","CENTER_NAME":"EARTH","INCLINATION":"53.0547","OBJECT_TYPE":"PAYLOAD","BSTAR":"0.00026331000000","ELEMENT_SET_NO":"999","LAUNCH_DATE":"2021-03-14","GP_ID":"217586162","ECCENTRICITY":"0.00019530","SITE":"AFETR","RCS_SIZE":"LARGE","TLE_LINE2":"2 47919  53.0547 326.8337 0001953  43.1062 317.0079 15.06404348 93219","MEAN_ANOMALY":"317.0079","EPHEMERIS_TYPE":"0","REV_AT_EPOCH":"9321","MEAN_MOTION":"15.06404348","RA_OF_ASC_NODE":"326.8337","DECAY_DATE":null,"EPOCH":"2022-11-12T17:24:38.533536","CLASSIFICATION_TYPE":"U","ARG_OF_PERICENTER":"43.1062"},{"PERIAPSIS":"546.131","NORAD_CAT_ID":"47977","TLE_LINE1":"1 47977U 21024A   22316.86689525  .00005911  00000-0  41534-3 0  9992","TIME_SYSTEM":"UTC","MEAN_ELEMENT_THEORY":"SGP4","REF_FRAME":"TEME","APOAPSIS":"548.275","SEMIMAJOR_AXIS":"6925.338","PERIOD":"95.592","OBJECT_TYPE":"PAYLOAD","ELEMENT_SET_NO":"999","BSTAR":"0.00041534000000","INCLINATION":"53.0553","FILE":"3652635","OBJECT_NAME":"STARLINK-2087","OBJECT_ID":"2021-024A","MEAN_MOTION_DDOT":"0.0000000000000","MEAN_MOTION_DOT":"0.00005911","CENTER_NAME":"EARTH","COUNTRY_CODE":"US","RCS_SIZE":"LARGE","TLE_LINE2":"2 47977  53.0553  11.2039 0001548  70.3730 289.7426 15.06403363 91909","MEAN_ANOMALY":"289.7426","GP_ID":"217586419","LAUNCH_DATE":"2021-03-24","SITE":"AFETR","ECCENTRICITY":"0.00015480","RA_OF_ASC_NODE":"11.2039","DECAY_DATE":null,"EPOCH":"2022-11-12T20:48:19.749600","ARG_OF_PERICENTER":"70.3730","CLASSIFICATION_TYPE":"U","REV_AT_EPOCH":"9190","EPHEMERIS_TYPE":"0","MEAN_MOTION":"15.06403363"},{"INCLINATION":"53.0571","OBJECT_TYPE":"PAYLOAD","ELEMENT_SET_NO":"999","BSTAR":"0.00027723000000","COUNTRY_CODE":"US","CENTER_NAME":"EARTH","MEAN_MOTION_DOT":"0.00003851","MEAN_MOTION_DDOT":"0.0000000000000","OBJECT_NAME":"STARLINK-1647","OBJECT_ID":"2021-024B","FILE":"3652635","APOAPSIS":"548.137","MEAN_ELEMENT_THEORY":"SGP4","REF_FRAME":"TEME","TIME_SYSTEM":"UTC","TLE_LINE1":"1 47978U 21024B   22316.88808450  .00003851  00000-0  27723-3 0  9990","NORAD_CAT_ID":"47978","PERIAPSIS":"546.220","PERIOD":"95.591","SEMIMAJOR_AXIS":"6925.314","CLASSIFICATION_TYPE":"U","ARG_OF_PERICENTER":"63.4690","EPOCH":"2022-11-12T21:18:50.500800","DECAY_DATE":null,"RA_OF_ASC_NODE":"21.0959","MEAN_MOTION":"15.06411408","EPHEMERIS_TYPE":"0","REV_AT_EPOCH":"9176","MEAN_ANOMALY":"296.6441","TLE_LINE2":"2 47978  53.0571  21.0959 0001384  63.4690 296.6441 15.06411408 91763","RCS_SIZE":"LARGE","ECCENTRICITY":"0.00013840","SITE":"AFETR","LAUNCH_DATE":"2021-03-24","GP_ID":"217586660"},{"OBJECT_TYPE":"PAYLOAD","BSTAR":"0.00030370000000","ELEMENT_SET_NO":"999","INCLINATION":"53.0558","MEAN_MOTION_DOT":"0.00004246","MEAN_MOTION_DDOT":"0.0000000000000","CENTER_NAME":"EARTH","COUNTRY_CODE":"US","FILE":"3652392","OBJECT_ID":"2021-024C","OBJECT_NAME":"STARLINK-2325","TIME_SYSTEM":"UTC","REF_FRAME":"TEME","MEAN_ELEMENT_THEORY":"SGP4","APOAPSIS":"548.996","PERIAPSIS":"545.385","NORAD_CAT_ID":"47979","TLE_LINE1":"1 47979U 21024C   22316.49415269  .00004246  00000-0  30370-3 0  9991","SEMIMAJOR_AXIS":"6925.326","PERIOD":"95.592","ARG_OF_PERICENTER":"38.0537","CLASSIFICATION_TYPE":"U","RA_OF_ASC_NODE":"317.8745","DECAY_DATE":null,"EPOCH":"2022-11-12T11:51:34.792416","MEAN_MOTION":"15.06407495","REV_AT_EPOCH":"9261","EPHEMERIS_TYPE":"0","TLE_LINE2":"2 47979  53.0558 317.8745 0002607  38.0537 322.0636 15.06407495 92611","MEAN_ANOMALY":"322.0636","RCS_SIZE":"LARGE","SITE":"AFETR","ECCENTRICITY":"0.00026070","LAUNCH_DATE":"2021-03-24","GP_ID":"217529340"},{"REV_AT_EPOCH":"9291","EPHEMERIS_TYPE":"0","MEAN_MOTION":"15.06430495","DECAY_DATE":null,"EPOCH":"2022-11-12T15:31:52.488192","RA_OF_ASC_NODE":"297.3155","ARG_OF_PERICENTER":"48.9239","CLASSIFICATION_TYPE":"U","GP_ID":"217586168","LAUNCH_DATE":"2021-03-24","SITE":"AFETR","ECCENTRICITY":"0.00017590","RCS_SIZE":"LARGE","MEAN_ANOMALY":"311.1902","TLE_LINE2":"2 47980  53.0542 297.3155 0001759  48.9239 311.1902 15.06430495 92913","OBJECT_NAME":"STARLINK-2312","OBJECT_ID":"2021-024D","FILE":"3652635","CENTER_NAME":"EARTH","COUNTRY_CODE":"US","MEAN_MOTION_DDOT":"0.0000000000000","MEAN_MOTION_DOT":"0.00010635","OBJECT_TYPE":"PAYLOAD","BSTAR":"0.00073116000000","ELEMENT_SET_NO":"999","INCLINATION":"53.0542","SEMIMAJOR_AXIS":"6925.255","PERIOD":"95.590","TLE_LINE1":"1 47980U 21024D   22316.64713528  .00010635  00000-0  73116-3 0  9993","PERIAPSIS":"545.902","NORAD_CAT_ID":"47980","APOAPSIS":"548.338","TIME_SYSTEM":"UTC","REF_FRAME":"TEME","MEAN_ELEMENT_THEORY":"SGP4"},{"ARG_OF_PERICENTER":"66.6387","CLASSIFICATION_TYPE":"U","EPOCH":"2022-11-12T21:02:55.784256","DECAY_DATE":null,"RA_OF_ASC_NODE":"21.1400","MEAN_MOTION":"15.06429978","REV_AT_EPOCH":"9176","EPHEMERIS_TYPE":"0","MEAN_ANOMALY":"293.4759","TLE_LINE2":"2 47981  53.0553  21.1400 0001498  66.6387 293.4759 15.06429978 91761","RCS_SIZE":"LARGE","SITE":"AFETR","ECCENTRICITY":"0.00014980","GP_ID":"217586920","LAUNCH_DATE":"2021-03-24","ELEMENT_SET_NO":"999","OBJECT_TYPE":"PAYLOAD","BSTAR":"0.00058702000000","INCLINATION":"53.0553","CENTER_NAME":"EARTH","COUNTRY_CODE":"US","MEAN_MOTION_DDOT":"0.0000000000000","MEAN_MOTION_DOT":"0.00008480","OBJECT_ID":"2021-024E","OBJECT_NAME":"STARLINK-2303","FILE":"3652635","APOAPSIS":"548.159","TIME_SYSTEM":"UTC","REF_FRAME":"TEME","MEAN_ELEMENT_THEORY":"SGP4","TLE_LINE1":"1 47981U 21024E   22316.87703454  .00008480  00000-0  58702-3 0  9995","PERIAPSIS":"546.084","NORAD_CAT_ID":"47981","SEMIMAJOR_AXIS":"6925.257","PERIOD":"95.590"},{"PERIOD":"95.592","SEMIMAJOR_AXIS":"6925.323","TLE_LINE1":"1 47982U 21024F   22316.72498843  .00002793  00000-0  20630-3 0  9993","NORAD_CAT_ID":"47982","PERIAPSIS":"545.699","APOAPSIS":"548.677","REF_FRAME":"TEME","MEAN_ELEMENT_THEORY":"SGP4","TIME_SYSTEM":"UTC","OBJECT_NAME":"STARLINK-2317","OBJECT_ID":"2021-024F","FILE":"3652635","COUNTRY_CODE":"US","CENTER_NAME":"EARTH","MEAN_MOTION_DOT":"0.00002793","MEAN_MOTION_DDOT":"0.0000000000000","INCLINATION":"53.0556","OBJECT_TYPE":"PAYLOAD","ELEMENT_SET_NO":"999","BSTAR":"0.00020630000000","LAUNCH_DATE":"2021-03-24","GP_ID":"217587161","ECCENTRICITY":"0.00021500","SITE":"AFETR","RCS_SIZE":"LARGE","MEAN_ANOMALY":"322.0971","TLE_LINE2":"2 47982  53.0556 311.8324 0002150  38.0170 322.0971 15.06408227 92667","EPHEMERIS_TYPE":"0","REV_AT_EPOCH":"9266","MEAN_MOTION":"15.06408227","DECAY_DATE":null,"EPOCH":"2022-11-12T17:23:59.000352","RA_OF_ASC_NODE":"311.8324","CLASSIFICATION_TYPE":"U","ARG_OF_PERICENTER":"38.0170"},{"RA_OF_ASC_NODE":"316.9781","DECAY_DATE":null,"EPOCH":"2022-11-12T17:31:18.192288","CLASSIFICATION_TYPE":"U","ARG_OF_PERICENTER":"56.6466","EPHEMERIS_TYPE":"0","REV_AT_EPOCH":"9258","MEAN_MOTION":"15.06413836","RCS_SIZE":"LARGE","TLE_LINE2":"2 47985  53.0551 316.9781 0002083  56.6466 303.4722 15.06413836 92587","MEAN_ANOMALY":"303.4722","LAUNCH_DATE":"2021-03-24","GP_ID":"217585418","ECCENTRICITY":"0.00020830","SITE":"AFETR","INCLINATION":"53.0551","ELEMENT_SET_NO":"999","OBJECT_TYPE":"PAYLOAD","BSTAR":"0.00054139000000","FILE":"3652635","OBJECT_ID":"2021-024J","OBJECT_NAME":"STARLINK-2308","MEAN_MOTION_DDOT":"0.0000000000000","MEAN_MOTION_DOT":"0.00007795","COUNTRY_CODE":"US","CENTER_NAME":"EARTH","NORAD_CAT_ID":"47985","PERIAPSIS":"545.729","TLE_LINE1":"1 47985U 21024J   22316.73007167  .00007795  00000-0  54139-3 0  9990","REF_FRAME":"TEME","MEAN_ELEMENT_THEORY":"SGP4","TIME_SYSTEM":"UTC","APOAPSIS":"548.614","PERIOD":"95.591","SEMIMAJOR_AXIS":"6925.306"},{"TIME_SYSTEM":"UTC","REF_FRAME":"TEME","MEAN_ELEMENT_THEORY":"SGP4","APOAPSIS":"548.360","PERIAPSIS":"546.143","NORAD_CAT_ID":"47989","TLE_LINE1":"1 47989U 21024N   22316.31769175  .00003943  00000-0  28353-3 0  9992","SEMIMAJOR_AXIS":"6925.387","PERIOD":"95.593","ELEMENT_SET_NO":"999","OBJECT_TYPE":"PAYLOAD","BSTAR":"0.00028353000000","INCLINATION":"53.0564","MEAN_MOTION_DOT":"0.00003943","MEAN_MOTION_DDOT":"0.0000000000000","CENTER_NAME":"EARTH","COUNTRY_CODE":"US","FILE":"3652392","OBJECT_NAME":"STARLINK-2305","OBJECT_ID":"2021-024N","TLE_LINE2":"2 47989  53.0564 293.6755 0001601  61.7258 298.3892 15.06387571 92887","MEAN_ANOMALY":"298.3892","RCS_SIZE":"LARGE","SITE":"AFETR","ECCENTRICITY":"0.00016010","LAUNCH_DATE":"2021-03-24","GP_ID":"217530091","ARG_OF_PERICENTER":"61.7258","CLASSIFICATION_TYPE":"U","RA_OF_ASC_NODE":"293.6755","EPOCH":"2022-11-12T07:37:28.567200","DECAY_DATE":null,"MEAN_MOTION":"15.06387571","REV_AT_EPOCH":"9288","EPHEMERIS_TYPE":"0"},{"SEMIMAJOR_AXIS":"6925.278","PERIOD":"95.591","PERIAPSIS":"545.747","NORAD_CAT_ID":"47990","TLE_LINE1":"1 47990U 21024P   22316.66786638  .00014913  00000-0  10173-2 0  9994","TIME_SYSTEM":"UTC","MEAN_ELEMENT_THEORY":"SGP4","REF_FRAME":"TEME","APOAPSIS":"548.538","FILE":"3652635","OBJECT_NAME":"STARLINK-2307","OBJECT_ID":"2021-024P","MEAN_MOTION_DDOT":"0.0000000000000","MEAN_MOTION_DOT":"0.00014913","CENTER_NAME":"EARTH","COUNTRY_CODE":"US","ELEMENT_SET_NO":"999","OBJECT_TYPE":"PAYLOAD","BSTAR":"0.00101730000000","INCLINATION":"53.0541","LAUNCH_DATE":"2021-03-24","GP_ID":"217586420","SITE":"AFETR","ECCENTRICITY":"0.00020150","RCS_SIZE":"LARGE","TLE_LINE2":"2 47990  53.0541 292.0746 0002015  55.3076 304.8103 15.06423180 92924","MEAN_ANOMALY":"304.8103","REV_AT_EPOCH":"9292","EPHEMERIS_TYPE":"0","MEAN_MOTION":"15.06423180","RA_OF_ASC_NODE":"292.0746","EPOCH":"2022-11-12T16:01:43.655232","DECAY_DATE":null,"ARG_OF_PERICENTER":"55.3076","CLASSIFICATION_TYPE":"U"}];
